{
  "links" : {
    "next" : "https://api.nasa.gov/neo/rest/v1/feed?start_date=2011-04-16&end_date=2011-04-16&detailed=true&api_key=t0TVs3DtDT2H8Oy2Zy8m2eVrNsAVKAexjcZXUckd",
    "prev" : "https://api.nasa.gov/neo/rest/v1/feed?start_date=2011-04-14&end_date=2011-04-14&detailed=true&api_key=t0TVs3DtDT2H8Oy2Zy8m2eVrNsAVKAexjcZXUckd",
    "self" : "https://api.nasa.gov/neo/rest/v1/feed?start_date=2011-04-15&end_date=2011-04-15&detailed=true&api_key=t0TVs3DtDT2H8Oy2Zy8m2eVrNsAVKAexjcZXUckd"
  },
  "element_count" : 11,
  "near_earth_objects" : {
    "2011-04-15" : [ {
      "links" : {
        "self" : "https://api.nasa.gov/neo/rest/v1/neo/3564039?api_key=t0TVs3DtDT2H8Oy2Zy8m2eVrNsAVKAexjcZXUckd"
      },
      "neo_reference_id" : "3564039",
      "name" : "(2011 HN5)",
      "nasa_jpl_url" : "http://ssd.jpl.nasa.gov/sbdb.cgi?sstr=3564039",
      "absolute_magnitude_h" : 25.1,
      "estimated_diameter" : {
        "kilometers" : {
          "estimated_diameter_min" : 0.0253837029,
          "estimated_diameter_max" : 0.0567596853
        },
        "meters" : {
          "estimated_diameter_min" : 25.3837029364,
          "estimated_diameter_max" : 56.7596852866
        },
        "miles" : {
          "estimated_diameter_min" : 0.0157726969,
          "estimated_diameter_max" : 0.0352688224
        },
        "feet" : {
          "estimated_diameter_min" : 83.279867942,
          "estimated_diameter_max" : 186.2194458756
        }
      },
      "is_potentially_hazardous_asteroid" : false,
      "close_approach_data" : [ {
        "close_approach_date" : "2011-04-15",
        "epoch_date_close_approach" : 1302850800000,
        "relative_velocity" : {
          "kilometers_per_second" : "5.1023979688",
          "kilometers_per_hour" : "18368.6326876282",
          "miles_per_hour" : "11413.5540163765"
        },
        "miss_distance" : {
          "astronomical" : "0.084246942",
          "lunar" : "32.7720603943",
          "kilometers" : "12603163",
          "miles" : "7831242.5"
        },
        "orbiting_body" : "Earth"
      } ],
      "orbital_data" : {
        "orbit_id" : "8",
        "orbit_determination_date" : "2017-04-06 08:53:37",
        "orbit_uncertainty" : "7",
        "minimum_orbit_intersection" : ".0386463",
        "jupiter_tisserand_invariant" : "6.480",
        "epoch_osculation" : "2458000.5",
        "eccentricity" : ".2427977156315114",
        "semi_major_axis" : ".9182082135071626",
        "inclination" : "3.962306091978255",
        "ascending_node_longitude" : "223.2762091608854",
        "orbital_period" : "321.3735918934121",
        "perihelion_distance" : ".6952693567935324",
        "perihelion_argument" : "201.4492620653459",
        "aphelion_distance" : "1.141147070220793",
        "perihelion_time" : "2458127.945888383193",
        "mean_anomaly" : "217.2361856254625",
        "mean_motion" : "1.120191605909545",
        "equinox" : "J2000"
      }
    }, {
      "links" : {
        "self" : "https://api.nasa.gov/neo/rest/v1/neo/3634391?api_key=t0TVs3DtDT2H8Oy2Zy8m2eVrNsAVKAexjcZXUckd"
      },
      "neo_reference_id" : "3634391",
      "name" : "(2013 GU38)",
      "nasa_jpl_url" : "http://ssd.jpl.nasa.gov/sbdb.cgi?sstr=3634391",
      "absolute_magnitude_h" : 20.6,
      "estimated_diameter" : {
        "kilometers" : {
          "estimated_diameter_min" : 0.2016299194,
          "estimated_diameter_max" : 0.4508582062
        },
        "meters" : {
          "estimated_diameter_min" : 201.6299194428,
          "estimated_diameter_max" : 450.8582061718
        },
        "miles" : {
          "estimated_diameter_min" : 0.1252869847,
          "estimated_diameter_max" : 0.2801502144
        },
        "feet" : {
          "estimated_diameter_min" : 661.5155049046,
          "estimated_diameter_max" : 1479.1936371367
        }
      },
      "is_potentially_hazardous_asteroid" : false,
      "close_approach_data" : [ {
        "close_approach_date" : "2011-04-15",
        "epoch_date_close_approach" : 1302850800000,
        "relative_velocity" : {
          "kilometers_per_second" : "9.3241185719",
          "kilometers_per_hour" : "33566.8268586636",
          "miles_per_hour" : "20857.1208333735"
        },
        "miss_distance" : {
          "astronomical" : "0.477445645",
          "lunar" : "185.726348877",
          "kilometers" : "71424848",
          "miles" : "44381344"
        },
        "orbiting_body" : "Earth"
      } ],
      "orbital_data" : {
        "orbit_id" : "31",
        "orbit_determination_date" : "2017-05-25 06:19:36",
        "orbit_uncertainty" : "0",
        "minimum_orbit_intersection" : ".248155",
        "jupiter_tisserand_invariant" : "4.303",
        "epoch_osculation" : "2458000.5",
        "eccentricity" : ".272999449395202",
        "semi_major_axis" : "1.579415559889981",
        "inclination" : "17.85997682898435",
        "ascending_node_longitude" : "206.9121030891971",
        "orbital_period" : "725.0084114222301",
        "perihelion_distance" : "1.148235981673801",
        "perihelion_argument" : "65.92726920500397",
        "aphelion_distance" : "2.010595138106161",
        "perihelion_time" : "2457944.554397195344",
        "mean_anomaly" : "27.7795632331593",
        "mean_motion" : ".496545963230685",
        "equinox" : "J2000"
      }
    }, {
      "links" : {
        "self" : "https://api.nasa.gov/neo/rest/v1/neo/3655553?api_key=t0TVs3DtDT2H8Oy2Zy8m2eVrNsAVKAexjcZXUckd"
      },
      "neo_reference_id" : "3655553",
      "name" : "(2013 YB48)",
      "nasa_jpl_url" : "http://ssd.jpl.nasa.gov/sbdb.cgi?sstr=3655553",
      "absolute_magnitude_h" : 22.0,
      "estimated_diameter" : {
        "kilometers" : {
          "estimated_diameter_min" : 0.1058168859,
          "estimated_diameter_max" : 0.2366137501
        },
        "meters" : {
          "estimated_diameter_min" : 105.8168859331,
          "estimated_diameter_max" : 236.6137501138
        },
        "miles" : {
          "estimated_diameter_min" : 0.0657515442,
          "estimated_diameter_max" : 0.1470249225
        },
        "feet" : {
          "estimated_diameter_min" : 347.1682720448,
          "estimated_diameter_max" : 776.2918559233
        }
      },
      "is_potentially_hazardous_asteroid" : false,
      "close_approach_data" : [ {
        "close_approach_date" : "2011-04-15",
        "epoch_date_close_approach" : 1302850800000,
        "relative_velocity" : {
          "kilometers_per_second" : "3.3803050265",
          "kilometers_per_hour" : "12169.0980954144",
          "miles_per_hour" : "7561.4043137868"
        },
        "miss_distance" : {
          "astronomical" : "0.3251729439",
          "lunar" : "126.4922714233",
          "kilometers" : "48645180",
          "miles" : "30226712"
        },
        "orbiting_body" : "Earth"
      } ],
      "orbital_data" : {
        "orbit_id" : "13",
        "orbit_determination_date" : "2017-04-06 08:43:09",
        "orbit_uncertainty" : "2",
        "minimum_orbit_intersection" : ".302506",
        "jupiter_tisserand_invariant" : "4.858",
        "epoch_osculation" : "2458000.5",
        "eccentricity" : ".05287475162787331",
        "semi_major_axis" : "1.353970065987963",
        "inclination" : "4.641524988167063",
        "ascending_node_longitude" : "283.4611800333423",
        "orbital_period" : "575.4558657289095",
        "perihelion_distance" : "1.282379235037274",
        "perihelion_argument" : "222.7019064076382",
        "aphelion_distance" : "1.425560896938652",
        "perihelion_time" : "2457881.560062227993",
        "mean_anomaly" : "74.40775244107721",
        "mean_motion" : ".6255909817584373",
        "equinox" : "J2000"
      }
    } ]
  }
}